#dP2021  3 11  0  0  0.00000000      96 __u+U ITR00 FIT  IAC
## 2148 345600.00000000   900.00000000 59284 0.0000000000000
+  125   C01C02C03C04C05C06C07C08C09C10C11C12C13C14C19C20C21
+        C22C23C24C25C26C27C28C29C30C32C33C34C35C36C37C38C39
+        C40C41C42C43C44C45C46C60E01E02E03E04E05E07E08E09E11
+        E12E13E14E15E18E19E21E24E25E26E27E30E31E33G01G02G03
+        G04G05G06G07G08G09G10G11G12G13G14G15G16G17G18G19G20
+        G21G22G23G24G25G26G27G28G29G30G31G32J01J02J03J07R01
+        R02R03R04R05R06R07R08R09R10R11R12R13R14R15R16R17R18
+        R19R20R21R22R23R24  0  0  0  0  0  0  0  0  0  0  0
++        13 13 13 12 13  9  9 10  9  9  9  9  9  9  8  8  8
++         8  8  8  8  8  8  8  8  8  8  8  8  8  9  8 10  9
++         9  9  9  9  9  9  9 13  4  5  4  4  4  5  4  4  5
++         5  4  5  4  5  5  4  4  5  5  4  5  5  5  4  4  3
++         4  4  3  4  4  4  4  5  4  4  4  4  4  4  4  4  4
++         4  4  4  4  4  4  4  4  4  4  4  4 10  9  8 15  7
++         6  6  6  6 13  6  6  6 13  8  6  8  6  6  8  6  6
++         8  8  6  8 13  6  0  0  0  0  0  0  0  0  0  0  0
%c M  cc GPS ccc cccc cccc cccc cccc ccccc ccccc ccccc ccccc
%c cc cc ccc ccc cccc cccc cccc cccc ccccc ccccc ccccc ccccc
%f  0.0000000  0.000000000  0.00000000000  0.000000000000000
%f  0.0000000  0.000000000  0.00000000000  0.000000000000000
%i    0    0    0    0      0      0      0      0         0
%i    0    0    0    0      0      0      0      0         0
/* INFORMATION & ANALYSIS CENTER (IAC)            RAPID DATA
/* S/V CLOCKS ARE ALIGNED TO GNSS TIME                      
/* G:C1WC2W R:C1PC2P E:C1XC5X C:C2IC6I J:C1CC2S             
/* PCV:IGS14_2134 OL/AL:FES2004  NONE     YN ORB:CoN CLK:CoN
*  2021 03 11  6 30  0.00000000
PC01 -34365.482375  24475.241222    282.035045   -666.457478
PC02   4376.455933  41876.430804  -1275.969819    448.548039
PC03 -14724.447074  39478.376505   -819.895025   -497.349164
PC04 -39634.367103  14424.719364    118.218015    453.811027
PC05  21952.359064  35954.846476   -972.134923   -918.116007
PC06 -12115.221103  37734.850737 -13189.097230    166.010057
PC07 -12507.934865  23539.248705  32920.842356     -5.555673
PC08 -26402.366804  26722.861007 -19398.780557   -902.199252
PC09  -3704.399606  41744.281973   1317.501774    676.890892
PC10   2718.929063  29366.063335  30468.864647    -73.561980
PC11  -2433.988642  27310.090470  -5228.062346   -875.800686
PC12 -12622.288296  21751.221075  12146.453854    856.119059
PC13 -12007.618232  27966.134897 -29172.542653    175.305939
PC14   6261.222705  21123.176269 -17130.939515    182.184608
PC19 -14826.881472 -21572.462030   9679.405712    757.310206
PC20   1890.016410 -17869.342973  21363.084824   -927.480006
PC21 -18264.267656   3280.296516 -20815.323782   -878.756554
PC22 -23407.120479 -12874.205158  -8016.036902   -911.713579
PC23  23468.986311   3229.320358  14741.518298   -877.103034
PC24 -13791.371859  17405.875994  16902.820580   -779.781391
PC25   7965.491099  14267.993695  22611.459733   -950.374060
PC26 -25538.285607  11060.782448   2298.836462    937.088731
PC27  15966.618185 -13255.143615 -18685.338884    496.680443
PC28  14336.140318   7761.930025 -22645.186630    -99.861782
PC29  -5244.911063 -23961.050938  13309.439127    363.374339
PC30   7525.587383 -26551.271199  -4240.594044    451.427053
PC32  18275.486910  -3426.017071  20830.360288   -909.861595
PC33  14923.158631  21505.816876  -9684.701668   -948.682938
PC34  -7170.801420  26716.249290   3558.984640   -721.693576
PC35 -14555.544483  -7656.336144  22546.135787   -380.242749
PC36  -7284.206758 -14578.738367 -22634.497654   -743.483632
PC37  26016.251503  -9951.426040  -1479.896620   -874.666349
PC38 -22668.947766  28672.598683 -21092.921710    135.074427
PC39  -6725.137452  40243.451760 -10354.528283     29.250756
PC40   -435.871096  25345.660426  33743.485095    139.732748
PC41  23459.910752  12951.744858   7824.635666   -931.614863
PC42  -2529.328563  17541.933710 -21511.855571   -930.039780
PC43   4897.242506  24240.801369 -12905.625994   -634.215467
PC44 -15646.935807  13511.832531  18720.770817     79.849706
PC45 -23513.215285  -3039.560527 -14740.187965    383.598729
PC46  12837.867703 -17460.058099 -17559.188400    368.346890
PC60   7326.637739  41515.253012    401.914729     -0.465375
PE01 -11830.132427  14083.428212  23190.665572  -1063.073384
PE02  11671.310329 -14139.057599 -23239.358344    204.183456
PE03   4472.821484 -22986.099283  18099.129437   -407.587855
PE04  10011.069800  27803.542220  -1691.469605   -726.489465
PE05  16538.643810  -4608.063317  24115.881315   -297.998596
PE07 -18835.035486 -16275.976680 -16003.755045   -511.253454
PE08 -10356.430462 -27687.658186   1413.610484   6034.950449
PE09  18866.176160  16079.321121  16191.996836   5738.695150
PE11  16032.690399   5252.618860 -24325.486958   6221.030301
PE12     94.548263  21642.983731 -20175.359572   5316.113911
PE13 -15712.238509  -5604.347524  24459.621601    413.366977
PE14  18529.557827  -9608.750936 -23746.898728  -1357.755827
PE15   -137.566480 -21611.285325  20241.995301    825.263159
PE18  -9490.383183  18999.609494  13808.405035  -1484.652317
PE19  -6038.745401  21394.295532 -19536.694990    223.910467
PE21 -27101.657568   3886.762779  11256.876004   -652.951073
PE24  26793.593913   9471.487645   8210.444645   -786.508273
PE25  27171.666141  -3773.863735 -11105.059230   -528.193306
PE26 -22159.291157  14135.724497  13619.353257   2055.477775
PE27 -27182.185912  -8947.506637  -7598.583466     12.919702
PE30 -10310.809990 -16662.731691 -22204.719851   3116.418287
PE31  11271.712570  16445.445469  21877.563844   -479.057699
PE33 -15504.269077  24869.049051  -4102.257521   -466.419363
PG01 -10908.077106  20372.402478 -13020.835738    743.890393
PG02  21399.311666 -13059.629721  -8160.903646   -584.964370
PG03  -1413.181662  15355.993567 -21713.692344   -104.839781
PG04  -2561.900976  24889.969885  -8827.315854   -185.463157
PG05  19441.001506  -6347.368610  16897.556079    -35.897675
PG06  19354.570240   -544.193796 -18143.626659      0.294129
PG07   3475.632025  16413.320151  20819.672268     86.045876
PG08  -6798.961160  20331.307593  15478.668976    -13.279172
PG09   6600.076671  25625.206851   2064.037629   -330.059687
PG10 -23410.578301 -11910.778439   4925.879155    -78.543139
PG11  -8830.399738  25238.433859  -1608.730517     -2.150074
PG12   6374.409399 -13620.653080 -22143.870265    -12.294396
PG13  13086.832332 -11556.133640  19844.476004    106.466102
PG14  22139.795815  13490.748455   5795.070567     99.837025
PG15   4870.412991 -21297.783135  14497.538740   -163.935087
PG16 -21476.700361   1710.579279  15594.189608   -292.238405
PG17  12992.461000  15797.999724 -16513.629440    407.723992
PG18  -6020.076418 -14270.054506  21565.308398    350.192440
PG19  14737.723204   7288.808810 -21163.636062    -27.899526
PG20 -15737.745725 -14850.985288  15528.508239    524.304423
PG21 -16380.399257  20045.211213  -4005.837507    102.188301
PG22 -11123.991053  12671.464495 -20285.830258   -662.920394
PG23 -15907.927588 -15729.178888  14328.113004    117.763847
PG24  13846.345706 -21214.879586  -7513.681687      1.225710
PG25  -9152.427233 -17035.333641 -18587.049536     96.523788
PG26 -25717.879724  -3143.207318   6403.693676     56.410746
PG27 -13100.218671   8379.891432  21311.134066    -91.777534
PG28  22583.097815  13399.240286   3770.753691    603.880843
PG29  -4555.125045 -26010.552610   2602.592247   -309.717594
PG30  14881.413385   7595.818231  20736.913030   -396.713137
PG31 -21247.529098   2514.976117 -16109.429333   -104.892545
PG32 -14918.655617 -13606.788008 -17240.355007     20.935480
PJ01 -20929.270645  20289.444512 -25943.361159   -354.053595
PJ02 -30704.264590  22691.469696  22767.509248      3.159736
PJ03 -29136.565936  26497.226497  20113.063899     -1.594728
PJ07 -25391.918909  33654.903886    -14.298341     -0.037808
PR01 -15840.720652  -4411.817786 -19492.124552     76.225207
PR02  -2056.458235  13706.668822 -21356.759988    470.280610
PR03  11133.836807  21007.960474  -9124.862611     32.196448
PR04  17801.388506  16384.329885   8102.700555     77.386755
PR05  14499.568565   2652.574951  20824.540099     67.956059
PR06    998.361891 -14574.393236  20910.161668    194.195978
PR07 -11491.272757 -21117.470020   8630.449112    -42.531442
PR08 -17823.400521 -16393.575349  -7991.983500    -57.845903
PR09  14446.743497 -11208.490579 -17805.128367    -17.701579
PR10  -3449.015578 -10558.245828 -22979.057320    -67.002423
PR11 -20322.745000  -3774.636804 -14934.686617      2.410470
PR12 -24928.730668   4949.328825   2351.354228    211.610128
PR13 -14908.226884  10937.005151  17552.629630    -51.842604
PR14   4412.565008  10477.019289  22840.274731     61.890636
PR15  20537.092367   3976.852952  14606.616539    104.993769
PR16  24514.101634  -5948.833349  -3305.804809    -12.332323
PR17  -2333.513789  21811.519429 -13033.834989    406.981908
PR18   7302.678207   9073.768085 -22668.067883     69.391727
PR19  13145.256028  -7307.827020 -20600.248464   -135.247045
PR20  11897.986609 -22101.841658  -4674.559697    -44.960784
PR21   1726.663804 -21205.898810  14059.726341   -193.522509
PR22  -7704.383182  -8149.944797  22910.210171   -101.995423
PR23 -13649.755841  14231.067176  16171.246362    371.294292
PR24 -11437.552040  22459.648377   3967.635593     34.561166
EOF
